[{"OBJECT_NAME":"JILIN-1 08","OBJECT_ID":"2018-008F","EPOCH":"2026-03-09T22:37:53.184288","MEAN_MOTION":15.32205976,"ECCENTRICITY":0.00081321,"INCLINATION":97.1902,"RA_OF_ASC_NODE":90.9961,"ARG_OF_PERICENTER":76.0646,"MEAN_ANOMALY":284.15,"EPHEMERIS_TYPE":0,"CLASSIFICATION_TYPE":"U","NORAD_CAT_ID":43160,"ELEMENT_SET_NO":999,"REV_AT_EPOCH":44974,"BSTAR":0.00036689195,"MEAN_MOTION_DOT":0.00011349,"MEAN_MOTION_DDOT":0},{"OBJECT_NAME":"STARLINK-31311","OBJECT_ID":"2024-027T","EPOCH":"2026-03-09T23:26:47.851008","MEAN_MOTION":15.30172647,"ECCENTRICITY":0.00013077,"INCLINATION":53.1608,"RA_OF_ASC_NODE":306.0707,"ARG_OF_PERICENTER":72.0046,"MEAN_ANOMALY":288.1097,"EPHEMERIS_TYPE":0,"CLASSIFICATION_TYPE":"U","NORAD_CAT_ID":58948,"ELEMENT_SET_NO":999,"REV_AT_EPOCH":11740,"BSTAR":-1.1276791e-5,"MEAN_MOTION_DOT":-6.93e-6,"MEAN_MOTION_DDOT":0}]
